STARLINK-2331
1 17875C 21021R   21326.19316773  .00002583  00000-0  17300-3 0  3264
2 17875  53.0555 112.8616 0001270  82.7072  45.2058 15.06407150    11
